0 ES'HAIL 2
1 43700U 18090A   23090.51458882  .00000138  00000-0  00000+0 0  9998
2 43700   0.0151 150.4138 0001124 218.8285  30.4132  1.00272981 16153
0 XW-2E
1 40909U 15049L   23090.28877377  .00036749  00000-0  11294-2 0  9992
2 40909  97.4605 103.1876 0011640  51.4819   4.2986 15.33542364417187
0 CSS (TIANHE-1)
1 48274U 21035A   23090.26991703  .00043359  00000-0  44894-3 0  9993
2 48274  41.4739 271.0574 0004755 264.7104 268.9587 15.63897627109645
0 XW-2B
1 40911U 15049N   23090.26831082  .00020327  00000-0  79882-3 0  9999
2 40911  97.4934  98.0779 0013507  74.5804 348.9109 15.25629729416471
0 ISS (ZARYA)
1 25544U 98067A   23090.26496853  .00041671  00000-0  75140-3 0  9996
2 25544  51.6417 354.6242 0007057 138.0418   7.4011 15.49322954389700
0 ZHUHAI-1 01
1 42761U 17034D   23090.25210553  .00012780  00000-0  66398-3 0  9995
2 42761  43.0166 187.0198 0012282 316.3167 138.5701 15.15951784319811
0 LILACSAT 2
1 40908U 15049K   23090.25177292  .00009059  00000-0  43912-3 0  9994
2 40908  97.5274  93.5836 0016294 100.3357 322.2082 15.18638109415968
0 XW-3 (CAS 9)
1 50466U 21131B   23090.21623340  .00001577  00000-0  52735-3 0  9999
2 50466  98.5536 172.0068 0004546  30.5755 329.5697 14.38792980 66146
0 OBJECT C
1 54684U 22167C   23090.19222106  .00018175  00000-0  10612-2 0  9996
2 54684  97.5486 228.4745 0013950 240.5491 226.2360 15.11894970 16882
0 DIWATA 2B
1 43678U 18084H   23090.19196823  .00002647  00000-0  25948-3 0  9992
2 43678  98.0078 232.6632 0010785  62.3375 297.8918 14.93102911240622
0 TEVEL 4
1 51063U 22002CH  23090.17990948  .00025390  00000-0  11204-2 0  9991
2 51063  97.4426 157.8433 0009876 144.6519 238.8183 15.21706621 66882
0 TEVEL 7
1 51062U 22002CG  23090.17617874  .00025659  00000-0  11309-2 0  9998
2 51062  97.4428 157.8522 0009790 144.2471 239.3980 15.21745689 66888
0 TEVEL 8
1 50989U 22002F   23090.17478124  .00025563  00000-0  11271-2 0  9990
2 50989  97.4422 157.8734 0009711 145.2642 240.1124 15.21735209 66885
0 FUNCUBE 1
1 39444U 13066AE  23090.16753551  .00008021  00000-0  90337-3 0  9993
2 39444  97.6637  57.1307 0054204 168.0330 192.2187 14.85809909504645
0 TEVEL 1
1 51013U 22002AF  23090.16725427  .00025474  00000-0  11224-2 0  9998
2 51013  97.4408 157.7708 0009691 145.5205 241.8507 15.21757797 66882
0 ZHUHAI-1 02
1 42759U 17034B   23090.16469787  .00014576  00000-0  75696-3 0  9993
2 42759  43.0165 188.9473 0011866 316.4442 119.1526 15.15884703319790
0 TEVEL 2
1 51069U 22002CP  23090.16161287  .00025735  00000-0  11326-2 0  9990
2 51069  97.4408 157.7857 0009656 146.2304 241.8662 15.21796637 66885
0 TEVEL 3
1 50988U 22002E   23090.15983742  .00025735  00000-0  11325-2 0  9995
2 50988  97.4415 157.8097 0010079 146.2293 242.4037 15.21795942 66888
0 AO-95
1 43770U 18099N   23090.14694714  .00009090  00000-0  75414-3 0  9990
2 43770  97.5819 153.8036 0014266  36.6513 323.5683 14.98935197235917
0 TEVEL 5
1 50998U 22002Q   23090.14386065  .00026550  00000-0  11442-2 0  9996
2 50998  97.4404 158.0919 0011245 141.0529 249.4551 15.22491069 66909
0 TEVEL 6
1 50999U 22002R   23090.14248013  .00026467  00000-0  11405-2 0  9993
2 50999  97.4401 158.0879 0011064 140.5506 250.0162 15.22495360 66904
0 XW-2A
1 40903U 15049E   23090.12425478  .00375508  55948-4  11080-2 0  9997
2 40903  97.1219 157.6406 0005227 163.2503 281.6380 15.92584161424068
0 UVSQ-SAT
1 47438U 21006AB  23090.11793710  .00026787  00000-0  11781-2 0  9998
2 47438  97.3944 148.4517 0009686   4.4561 355.6760 15.21810401120764
0 XW-2D
1 40907U 15049J   23090.08749447  .00020471  00000-0  80012-3 0  9994
2 40907  97.4962  97.4145 0013640  73.8776 356.7743 15.25809082416568
0 EYESAT A
1 22825U 93061C   23090.06786864  .00000284  00000-0  12742-3 0  9990
2 22825  98.8516 131.6624 0007440 299.4446  60.5993 14.30274540539395
0 XW-2F
1 40910U 15049M   23089.99370231  .00036312  00000-0  11376-2 0  9994
2 40910  97.4687 102.1051 0012393  53.7143   2.1259 15.32922559416898
0 XW-2C
1 40906U 15049H   23089.97683771  .00017281  00000-0  70726-3 0  9992
2 40906  97.4975  96.9590 0014545  78.8450 338.2979 15.24290267416472
0 LAPAN A2
1 40931U 15052B   23089.90713231  .00001634  00000-0  13668-3 0  9999
2 40931   5.9985 285.3459 0013481 268.0751  91.8016 14.77129644405769
0 JY1SAT
1 43803U 18099AX  23089.88538874  .00009905  00000-0  80263-3 0  9993
2 43803  97.5801 154.5053 0014194  23.7223 336.4652 14.99821275235952
0 NEXUS
1 43937U 19003F   23089.86013334  .00069283  00000-0  14759-2 0  9995
2 43937  97.0985 118.4509 0015335 193.0233 167.0623 15.44566256233920
0 AO-91
1 43017U 17073E   23089.85038293  .00013384  00000-0  95176-3 0  9993
2 43017  97.6419 337.2955 0236318 328.1183  30.5908 14.84935704289555
0 OSCAR 7
1 07530U 74089B   23089.83548939 -.00000013  00000-0  20541-3 0  9994
2 07530 101.9432  75.9975 0011996 212.3192 264.6596 12.53662796213354
0 JAS 2
1 24278U 96046B   23089.81135629  .00000045  00000-0  84493-4 0  9996
2 24278  98.5235  79.0671 0349201 260.1897  95.9654 13.53140066314330
0 BREEZE-KM R/B
1 44909U 19096E   23089.80642801  .00000034  00000-0  91990-4 0  9991
2 44909  82.5239  40.0188 0217824  10.5410 350.0149 12.79719616152136
0 NAYIF 1
1 42017U 17008BX  23089.75257026  .00131778  00000-0  18012-2 0  9997
2 42017  97.2227 158.9476 0002917 262.5670  97.5254 15.56990112341180
0 AO-92
1 43137U 18004AC  23089.74740956  .00047561  00000-0  11712-2 0  9992
2 43137  97.3337 168.3941 0006512  73.1215 287.0745 15.40422177290217
0 SAUDISAT 1C
1 27607U 02058C   23089.63360238  .00002835  00000-0  40226-3 0  9995
2 27607  64.5548 145.7159 0075309 240.3359 119.0232 14.77034623 90620
0 MT-CUBE-2
1 53106U 22080B   23088.05176028 -.00000003  00000-0  00000-0 0  9991
2 53106  70.1795 347.5677 0008286 204.3079 155.7190  6.42557135 16603
0 XW-4 (CAS-10)
1 54816U 21035C   23072.25043904  .02330371  77621-5  12756-2 0  9996
2 54816  41.5077   9.4914 0017840 162.4710 197.7314 16.18206266 13316
